[{"OBJECT_NAME":"STARLINK-6334","OBJECT_ID":"2023-094W","EPOCH":"2026-03-09T05:12:12.864384","MEAN_MOTION":15.02533262,"ECCENTRICITY":0.00017208,"INCLINATION":43.0061,"RA_OF_ASC_NODE":20.339,"ARG_OF_PERICENTER":259.4052,"MEAN_ANOMALY":100.6597,"EPHEMERIS_TYPE":0,"CLASSIFICATION_TYPE":"U","NORAD_CAT_ID":57238,"ELEMENT_SET_NO":999,"REV_AT_EPOCH":14719,"BSTAR":2.2545842e-5,"MEAN_MOTION_DOT":1.01e-6,"MEAN_MOTION_DDOT":0},{"OBJECT_NAME":"KORSAT-3","OBJECT_ID":"2025-081A","EPOCH":"2026-03-09T21:24:50.510592","MEAN_MOTION":14.99637968,"ECCENTRICITY":0.00099231,"INCLINATION":45.4106,"RA_OF_ASC_NODE":130.6437,"ARG_OF_PERICENTER":32.4345,"MEAN_ANOMALY":327.7142,"EPHEMERIS_TYPE":0,"CLASSIFICATION_TYPE":"U","NORAD_CAT_ID":63630,"ELEMENT_SET_NO":999,"REV_AT_EPOCH":4828,"BSTAR":0.00043193523,"MEAN_MOTION_DOT":5.176e-5,"MEAN_MOTION_DDOT":0}]
